NOAA 15                 
1 25338U 98030A   20187.81797705  .00000072  00000-0  48693-4 0  9996
2 25338  98.7155 212.7748 0009927 203.3479 156.7252 14.25976973151596
DMSP 5D-3 F15 (USA 147) 
1 25991U 99067A   20187.94993240 -.00000104  00000-0 -29606-4 0  9999
2 25991  98.9706 159.4598 0010827  51.6021  16.7145 14.16480954 63040
METEOSAT-8 (MSG-1)      
1 27509U 02040B   20187.72453485  .00000122  00000-0  00000+0 0  9999
2 27509   6.7563  54.0344 0002490  38.4960 133.8296  1.00269207 65467
DMSP 5D-3 F16 (USA 172) 
1 28054U 03048A   20187.91840309 -.00000101  00000-0 -29866-4 0  9995
2 28054  98.9127 166.9148 0007568 162.7439 251.3771 14.13653485862394
NOAA 18                 
1 28654U 05018A   20187.86339551  .00000089  00000-0  72606-4 0  9999
2 28654  99.0424 244.4635 0014469 175.1202 185.0113 14.12522801779519
METEOSAT-9 (MSG-2)      
1 28912U 05049B   20187.86052597  .00000003  00000-0  00000-0 0  9993
2 28912   4.4636  70.0867 0002763  12.5027 154.9104  1.00267557 53252
FORMOSAT-3 FM6          
1 29047U 06011A   20187.89062126  .00000110  00000-0  59509-4 0  9996
2 29047  71.9792  72.3628 0049680  28.5596 331.8245 14.28738321743952
FORMOSAT-3 FM1          
1 29048U 06011B   20187.83967849 -.00000052  00000-0 -40113-5 0  9996
2 29048  71.9672 343.3530 0044234 346.3377  13.6558 14.28704735746431
FORMOSAT-3 FM5          
1 29049U 06011C   20187.90969678  .00000049  00000-0  35682-4 0  9995
2 29049  72.0198 154.9624 0034644  11.7119 348.4815 14.28787553742236
FORMOSAT-3 FM3          
1 29050U 06011D   20187.65488185  .00000096  00000-0  30696-4 0  9990
2 29050  72.0166 299.7159 0051550 291.1991  68.3659 14.58925368759087
FORMOSAT-3 FM4          
1 29051U 06011E   20187.90918273  .00000040  00000-0  31614-4 0  9995
2 29051  72.0061  56.9849 0069720 253.3129 106.0347 14.28817886744824
FORMOSAT-3 FM2          
1 29052U 06011F   20187.90762136  .00000044  00000-0  33581-4 0  9990
2 29052  72.0345 131.2480 0041027 331.8116  28.0799 14.28923162742339
GOES 13                 
1 29155U 06018A   20187.85830764  .00000024  00000-0  00000-0 0  9992
2 29155   0.1109 244.2152 0006608 300.2389 110.4622  1.00276047 21589
METOP-A                 
1 29499U 06044A   20187.90309285  .00000002  00000-0  20302-4 0  9994
2 29499  98.5207 234.0597 0001162 120.8040  69.2379 14.21501208711325
DMSP 5D-3 F17 (USA 191) 
1 29522U 06050A   20187.88313881 -.00000103  00000-0 -31208-4 0  9993
2 29522  98.8010 204.0065 0010769 121.4563 238.7664 14.14017224705318
FENGYUN 3A              
1 32958U 08026A   20187.90203196 -.00000024  00000-0  79668-5 0  9999
2 32958  98.4064 172.6846 0007515 286.2514  73.7836 14.18628522627334
FENGYUN 2E              
1 33463U 08066A   20187.73846434 -.00000212  00000-0  00000-0 0  9992
2 33463   4.3786  68.5021 0002903 324.5316 243.2154  1.00263616 42304
NOAA 19                 
1 33591U 09005A   20187.93939846  .00000064  00000-0  60111-4 0  9997
2 33591  99.1947 193.7679 0014453  28.1458 332.0492 14.12419330587741
GOES 14                 
1 35491U 09033A   20187.59783418 -.00000104  00000-0  00000-0 0  9996
2 35491   0.3652  97.9940 0008824 114.0189 182.8967  1.00270619 40331
METEOR-M 1              
1 35865U 09049A   20187.87979951  .00000004  00000-0  20346-4 0  9995
2 35865  98.4387 174.1384 0003252 121.1675 238.9823 14.22242314560394
DMSP 5D-3 F18 (USA 210) 
1 35951U 09057A   20187.94284555  .00000055  00000-0  52020-4 0  9997
2 35951  98.6447 177.2119 0010264 321.3794  38.6644 14.13281063326295
GOES 15                 
1 36411U 10008A   20187.69063406  .00000045  00000-0  00000-0 0  9995
2 36411   0.0791 261.1843 0003071 173.3558 329.9830  1.00266360 37886
COMS 1                  
1 36744U 10032A   20187.84563072 -.00000356  00000-0  00000-0 0  9998
2 36744   0.0396  83.7969 0001208  17.5395 255.5214  1.00272572 29301
FENGYUN 3B              
1 37214U 10059A   20187.79125465 -.00000007  00000-0  19639-4 0  9999
2 37214  99.0466 169.8104 0016392 212.9887 147.0263 14.15951491500277
SUOMI NPP               
1 37849U 11061A   20187.87060698 -.00000002  00000-0  19609-4 0  9994
2 37849  98.7371 125.5471 0001051 107.0053 321.1028 14.19538509450243
FENGYUN 2F              
1 38049U 12002A   20187.95395564 -.00000371  00000-0  00000-0 0  9995
2 38049   2.1064  83.5224 0002188  67.2077 229.2621  1.00272977 31105
METEOSAT-10 (MSG-3)     
1 38552U 12035B   20187.93243734  .00000051  00000-0  00000-0 0  9993
2 38552   1.0035  16.8643 0000903  54.1643 198.3424  1.00277613 29107
METOP-B                 
1 38771U 12049A   20187.95203361 -.00000003  00000-0  18489-4 0  9997
2 38771  98.6904 246.9758 0000754  37.9351 134.8054 14.21499498404654
FENGYUN 3C              
1 39260U 13052A   20187.85902939 -.00000018  00000-0  12172-4 0  9991
2 39260  98.5488 237.4909 0011605 157.6422 202.5260 14.15840953351150
METEOR-M 2              
1 40069U 14037A   20187.78448689 -.00000039  00000-0  11668-5 0  9996
2 40069  98.5010 224.6266 0004848 220.9747 139.1063 14.20673380310817
HIMAWARI-8              
1 40267U 14060A   20187.81603567 -.00000287  00000-0  00000-0 0  9992
2 40267   0.0199  90.0348 0000859  40.6864 227.9460  1.00273599 20978
FENGYUN 2G              
1 40367U 14090A   20187.95133856 -.00000311  00000-0  00000-0 0  9998
2 40367   2.1272  94.3705 0002197   1.3702 270.3344  1.00260284 20251
METEOSAT-11 (MSG-4)     
1 40732U 15034A   20187.93162324 -.00000013  00000-0  00000-0 0  9992
2 40732   0.7958 273.5720 0003113 218.3357 127.9406  1.00269513 18252
ELEKTRO-L 2             
1 41105U 15074A   20187.94671506 -.00000109  00000-0  00000-0 0  9995
2 41105   1.2437  96.9689 0001170  42.2246 201.9973  1.00272293 16730
HIMAWARI-9              
1 41836U 16064A   20187.81612292 -.00000286  00000-0  00000+0 0  9994
2 41836   0.0122  75.3497 0000526  13.9474 269.5158  1.00270520 13529
GOES 16                 
1 41866U 16071A   20187.91661868 -.00000259  00000-0  00000-0 0  9990
2 41866   0.0341 202.2556 0001038 287.4800  49.3900  1.00271053 13332
FENGYUN 4A              
1 41882U 16077A   20187.97705860 -.00000342  00000-0  00000-0 0  9994
2 41882   0.0215 337.9047 0004826 166.1436 236.8096  1.00270579 13204
CYGFM05                 
1 41884U 16078A   20187.74227296  .00000200  00000-0  12278-4 0  9990
2 41884  34.9568 306.3532 0016051 211.8301 148.1441 15.14640243196888
CYGFM04                 
1 41885U 16078B   20187.70638719  .00000217  00000-0  13005-4 0  9990
2 41885  34.9498 299.6735 0014540 221.9129 138.0470 15.15150784196945
CYGFM02                 
1 41886U 16078C   20187.69921910  .00000224  00000-0  13354-4 0  9992
2 41886  34.9591 301.4620 0015246 217.7909 142.1732 15.15151765196934
CYGFM01                 
1 41887U 16078D   20187.71317206  .00000211  00000-0  12904-4 0  9999
2 41887  34.9535 307.6987 0016516 212.2151 147.7552 15.14452960196860
CYGFM08                 
1 41888U 16078E   20187.76584486  .00000224  00000-0  13455-4 0  9997
2 41888  34.9505 303.0779 0015767 219.5465 140.4096 15.14868425196907
CYGFM06                 
1 41889U 16078F   20187.74409179  .00000212  00000-0  12741-4 0  9995
2 41889  34.9585 299.8734 0014183 218.3165 141.6539 15.15145758196941
CYGFM07                 
1 41890U 16078G   20187.72250384  .00000193  00000-0  11764-4 0  9999
2 41890  34.9523 299.0920 0013991 221.3046 138.6607 15.15144392196947
CYGFM03                 
1 41891U 16078H   20187.71796947  .00000200  00000-0  12104-4 0  9997
2 41891  34.9554 299.3712 0013450 220.1423 139.8295 15.15140022196942
FENGYUN 3D              
1 43010U 17072A   20187.83216978 -.00000042  00000-0  73636-6 0  9995
2 43010  98.7518 126.9537 0002253  47.7453 312.3911 14.19744596136801
NOAA 20                 
1 43013U 17073A   20187.82240092 -.00000028  00000-0  75679-5 0  9994
2 43013  98.7184 125.4851 0000828  72.0219 288.1047 14.19556934136260
GOES 17                 
1 43226U 18022A   20187.76047608  .00000086  00000-0  00000-0 0  9990
2 43226   0.0610 226.5576 0000579 253.3471 300.8767  1.00273926  8622
FENGYUN 2H              
1 43491U 18050A   20187.94741294 -.00000139  00000-0  00000-0 0  9997
2 43491   0.6148 273.4946 0003294 222.0701 209.1652  1.00269029  7729
METOP-C                 
1 43689U 18087A   20187.88520968 -.00000004  00000-0  18228-4 0  9998
2 43689  98.6967 247.2101 0001003 311.0207  49.0883 14.21493200 86217
GEO-KOMPSAT-2A          
1 43823U 18100A   20187.84563072 -.00000355  00000-0  00000-0 0  9997
2 43823   0.0383 151.1038 0002358 297.9187 267.9369  1.00271692  5821
IOD-1 GEMS              
1 44385U 98067QK  20187.87740871  .00013186  00000-0  16214-3 0  9990
2 44385  51.6385 239.7974 0002968  30.5220 329.5946 15.60616421 57374
METEOR-M2 2             
1 44387U 19038A   20187.92085022 -.00000038  00000-0  21913-5 0  9996
2 44387  98.6207 147.5978 0001740 136.6921 223.4395 14.23679771 52160
